IRIDIUM 126             
1 42809U 17039G   24018.46063435  .00000146  00000+0  45234-4 0  9991
2 42809  86.3982   1.6988 0002390  83.1450 277.0017 14.34218771343718
IRIDIUM 124             
1 42810U 17039H   24018.27338088  .00000887  00000+0  25761-3 0  9995
2 42810  86.4502 298.5349 0001888  86.0433 274.0983 14.43290574348053
IRIDIUM 128             
1 42811U 17039J   24018.59090754  .00000329  00000+0  11054-3 0  9997
2 42811  86.3953  33.1581 0002163  86.6772 273.4671 14.34218232343764
IRIDIUM 121             
1 42812U 17039K   24018.47966380 -.00000647  00000+0 -23820-3 0  9991
2 42812  86.3978   1.7135 0002134  83.5680 276.5759 14.34216013343597
IRIDIUM 133             
1 42955U 17061A   24018.55285802  .00000313  00000+0  10481-3 0  9993
2 42955  86.3954  33.2703 0002326  88.8652 271.2811 14.34216968328559
IRIDIUM 100             
1 42956U 17061B   24018.54651315  .00000314  00000+0  10491-3 0  9991
2 42956  86.3952  33.2122 0002169  89.2127 270.9318 14.34214931328556
IRIDIUM 122             
1 42957U 17061C   24018.58456235  .00000507  00000+0  17381-3 0  9999
2 42957  86.3953  33.1943 0002218  86.0705 274.0744 14.34215630328566
IRIDIUM 129             
1 42958U 17061D   24018.54017330  .00000303  00000+0  10110-3 0  9992
2 42958  86.3954  33.2707 0002247  86.3389 273.8064 14.34217252328575
